STARLINK-1559           
1 46077U 20055BC  26068.23360559  .00042685  00000+0  14779-2 0  9995
2 46077  53.0254  76.0659 0004229  33.9710 326.1559 15.29461733309518
STARLINK-30606          
1 58109U 23161N   26068.50714761 -.00001291  00000+0 -31483-4 0  9996
2 58109  53.1624 166.3794 0001300  71.7277 288.3865 15.30181359134393
